{
  "norad_id": 62092,
  "name": "STARLINK-11388 [DTC]",
  "history": [
    {
      "epoch": "2026-03-28T21:36:35.742816Z",
      "apogee_km": 357.72581750303016,
      "perigee_km": 355.1565759209834,
      "latitude_deg": -1.808817045843021e-05,
      "longitude_deg": 136.89342815453182,
      "height_km": 356.3967721320453,
      "semi_major_axis_km": 6734.5781967120065,
      "eccentricity": 0.00019075,
      "inclination_deg": 42.9994,
      "raan_deg": 287.3566,
      "arg_perigee_deg": 261.8176,
      "mean_anomaly_deg": 98.2475,
      "mean_motion_rev_day": 15.70858846
    },
    {
      "epoch": "2026-03-28T23:08:09.568032Z",
      "apogee_km": 357.69274885871437,
      "perigee_km": 355.27636664379315,
      "latitude_deg": -1.4773242479595184e-05,
      "longitude_deg": 113.5569201024483,
      "height_km": 356.4990698962052,
      "semi_major_axis_km": 6734.621557751254,
      "eccentricity": 0.0001794,
      "inclination_deg": 42.9996,
      "raan_deg": 286.9737,
      "arg_perigee_deg": 258.4525,
      "mean_anomaly_deg": 101.6141,
      "mean_motion_rev_day": 15.70843675
    },
    {
      "epoch": "2026-03-29T22:01:33.370176Z",
      "apogee_km": 358.12749184248514,
      "perigee_km": 353.2831656711778,
      "latitude_deg": -4.2862879719602704e-05,
      "longitude_deg": 123.51845835966711,
      "height_km": 355.41172220635104,
      "semi_major_axis_km": 6733.842328756831,
      "eccentricity": 0.0003597,
      "inclination_deg": 42.9983,
      "raan_deg": 281.2245,
      "arg_perigee_deg": 271.5933,
      "mean_anomaly_deg": 88.4522,
      "mean_motion_rev_day": 15.71116346
    },
    {
      "epoch": "2026-03-30T05:39:22.516128Z",
      "apogee_km": 356.98700632877353,
      "perigee_km": 355.8595062506656,
      "latitude_deg": -5.305755423750428e-05,
      "longitude_deg": 6.8340069652974,
      "height_km": 355.6959782188143,
      "semi_major_axis_km": 6734.560256289719,
      "eccentricity": 8.371e-05,
      "inclination_deg": 42.9991,
      "raan_deg": 279.3082,
      "arg_perigee_deg": 332.2238,
      "mean_anomaly_deg": 27.8584,
      "mean_motion_rev_day": 15.70865123
    }
  ]
}